GLOBALSTAR M023         
1 25621U 99004A   24278.47314718  .00000034  00000+0  76459-3 0  9996
2 25621  52.0091 112.0859 0009189 283.9101 107.0766 12.62477460183437
GLOBALSTAR M040         
1 25622U 99004B   24278.50354073 -.00000005  00000+0  55037-3 0  9997
2 25622  51.9894 115.7654 0001016 132.0273 243.9396 12.61985720182974
GLOBALSTAR M038         
1 25624U 99004D   24278.47271983 -.00000046  00000+0  40142-3 0  9999
2 25624  51.9957  87.9886 0001131 216.3848 172.5724 12.32509563170845
GLOBALSTAR M022         
1 25649U 99012A   24278.29513037 -.00000056  00000+0  36720-3 0  9992
2 25649  52.0027 266.5292 0002719  26.6174 346.6994 12.02488982145679
GLOBALSTAR M041         
1 25650U 99012B   24278.54054543 -.00000120  00000+0 -45083-3 0  9999
2 25650  52.0003 139.5179 0002419 161.7620 198.3303 11.96658552147674
GLOBALSTAR M037         
1 25652U 99012D   24278.30724744 -.00000028  00000+0  42458-3 0  9991
2 25652  51.9991 243.3024 0002091 352.3265 155.3625 12.62420166178959
